#cP2023  9 18  0  0  0.00000000      96 ORBIT IGS20 HLM  IGS
## 2280  86400.00000000   900.00000000 60205 0.0000000000000
+   32   G01G02G03G04G05G06G07G08G09G10G11G12G13G14G15G16G17
+        G18G19G20G21G22G23G24G25G26G27G28G29G30G31G32  0  0
+          0  0  0  0  0  0  0  0  0  0  0  0  0  0  0  0  0
+          0  0  0  0  0  0  0  0  0  0  0  0  0  0  0  0  0
+          0  0  0  0  0  0  0  0  0  0  0  0  0  0  0  0  0
++         2  2  2  2  2  2  2  2  2  2  3  2  2  2  2  2  2
++         2  2  2  3  2  2  2  2  2  2  3  2  2  2  2  0  0
++         0  0  0  0  0  0  0  0  0  0  0  0  0  0  0  0  0
++         0  0  0  0  0  0  0  0  0  0  0  0  0  0  0  0  0
++         0  0  0  0  0  0  0  0  0  0  0  0  0  0  0  0  0
%c G  cc GPS ccc cccc cccc cccc cccc ccccc ccccc ccccc ccccc
%c cc cc ccc ccc cccc cccc cccc cccc ccccc ccccc ccccc ccccc
%f  1.2500000  1.025000000  0.00000000000  0.000000000000000
%f  0.0000000  0.000000000  0.00000000000  0.000000000000000
%i    0    0    0    0      0      0      0      0         0
%i    0    0    0    0      0      0      0      0         0
/* RAPID ORBIT COMBINATION FROM WEIGHTED AVERAGE OF:        
/* cod emr esa gfz grg jgx jpl ngs sio usn                  
/* REFERENCED TO IGS TIME (IGST) AND TO WEIGHTED MEAN POLE: 
/* PCV:IGS20      OL/AL:FES2014b NONE     Y  ORB:CMB CLK:CMB
*  2023  9 18  2 15  0.00000000
PG01   2086.964448 -15737.191356 -21570.883364    165.249343  6  6  7 104       
PG02   9359.893129 -17452.171007 -17114.120312   -552.685492  7  8  6  93       
PG03  -7978.507971 -20125.361904 -15606.459418   -129.365756  7  2  6  86       
PG04   -216.650790 -25404.005973   7535.341762    159.127192  6  7  5  94       
PG05  -6675.326271  13610.937771  21619.624857   -143.131855  6  5  4 106       
PG06 -25413.321778   5043.712888  -6004.221097    548.269954  6  6  4  94       
PG07 -15648.813842  -9351.201657  19944.417640     64.323986  3  6  5  88       
PG08   5725.634190 -25508.922339   3158.277566   -142.794345  5  3  3  79       
PG09  -7610.559895 -20605.740250  14810.948460    -56.818632  6  4  4  98       
PG10  22580.820969   9171.724750 -10760.897313    -53.812084  3  4  2  88       
PG11 -22356.440296  12366.432798   7173.956105   -373.929569 10 10  7  34       
PG12   3228.132572  19883.780036 -17623.591046   -425.977765  6  6  3  96       
PG13 -13294.691487  20723.428608   9480.992549    573.804789  8  6  6  66       
PG14 -22432.883404 -11961.226211  -7960.058044    188.109628  6  5  6 100       
PG15  -1850.674096  26267.381424   1781.761474     78.556956  7  4  3  81       
PG16  12522.661142  -8631.131271  21496.182627   -452.589431  7  5  3  83       
PG17 -14022.379914  -4743.651702 -21613.170345    723.775382  7  5  1 103       
PG18  17211.947882   7481.497613  18870.018107   -420.804318  5  4  6  85       
PG19 -15959.935154   3899.039625 -20996.182938    372.966748  7  5  5  68       
PG20 -16714.801156   6580.482545  19541.677625    411.333003  7  6  5  81       
PG21  11447.323038 -17395.720822 -15408.224399    148.688850  4  5  9  91       
PG22 -20976.475093  -6957.017949 -14064.489284    119.739953  6  7  4  95       
PG23  20641.314515  16839.000284   1006.705898     69.894396  4  5  1 105       
PG24  -5781.089745  18154.339438 -18715.753699   -322.437614  6  5  4  67       
PG25  15954.599372  19993.730546  -7963.951926    468.311593  5  5  3 103       
PG26  20261.698849  -1268.031657  17180.784541    227.962847  5  6  2  66       
PG27  12629.626862 -18424.520511  13790.904025    -41.227269  7  5  3  93       
PG28  24960.261696  -4319.431354  -8011.484298    -11.317301  9  9  6  63       
PG29   5682.748191  20766.075880  15439.307715   -609.390365  5  5  1  75       
PG30 -22963.554181  -2147.885702  13522.391302   -486.814713  6  5  6 106       
PG31  24808.949843  -9942.262226   1657.872400   -223.519808  9  8  3  89       
PG32  15269.859790   -121.310340 -21537.301694   -559.593831  4  2  5  91       
*  2023  9 18  2 30  0.00000000
PG01   4291.414907 -16530.212547 -20585.195855    165.248602  5  7  7  97       
PG02  11166.902797 -18178.706595 -15208.621191   -552.681201  6  8  6  89       
PG03  -6428.232529 -19085.772110 -17518.696383   -129.346985  6  1  5  95       
PG04    143.824956 -26059.632305   4784.548803    159.137148  7  8  5  91       
PG05  -8750.211541  12183.106017  21738.506235   -143.133126  7  6  4  97       
PG06 -24685.480639   4582.918755  -8745.412186    548.263603  5  6  4  87       
PG07 -13607.683673 -10269.522239  20945.699257     64.314667  2  6  5  93       
PG08   5961.162506 -24945.011898   5964.993021   -142.796492  4  2  3  78       
PG09  -7228.097236 -22157.677933  12606.790190    -56.809258  5  4  5  99       
PG10  23351.482441   9966.529744  -8165.668692    -53.813029  3  5  3  79       
PG11 -23058.765814  12366.920112   4407.669502   -373.946032 10 10  7  80       
PG12   1609.567588  18615.993839 -19179.256569   -425.981567  7  6  4  99       
PG13 -13167.186674  19450.738178  11992.662767    573.808812  8  6  6  71       
PG14 -22851.535338 -12647.250132  -5277.135317    188.119774  6  5  6  92       
PG15  -2208.875062  25852.431941   4563.719380     78.560223  7  5  2  61       
PG16  14340.187990  -6925.442749  21019.137868   -452.584526  7  6  3  84       
PG17 -13498.714025  -7233.888070 -21250.807537    723.775459  7  5  2  99       
PG18  15173.824216   8378.070791  20180.711322   -420.815519  4  4  6  89       
PG19 -15456.947443   1547.687832 -21702.401680    372.971527  6  5  5  82       
PG20 -18557.576198   5446.019193  18159.972741    411.331170  7  6  5  90       
PG21  13121.651571 -17979.204389 -13246.658015    148.688400  4  6  9  79       
PG22 -21963.023251  -8180.901269 -11763.105052    119.733556  6  7  4  92       
PG23  20300.555995  16839.080198   3862.749744     69.899190  3  5    101       
PG24  -7648.822449  18914.797122 -17160.276549   -322.447155  7  5  5  81       
PG25  15006.919704  19572.345770 -10518.483779    468.313310  6  5  3 108       
PG26  21721.337401    -67.071518  15394.318151    227.961155  4  6  2  67       
PG27  12612.485247 -16659.471535  15892.801235    -41.232872  7  4  2  97       
PG28  24087.871322  -3673.105181 -10594.878807    -11.322164  9  8  6  74       
PG29   5175.871648  22345.540177  13256.062617   -609.390667  6  4  1  42       
PG30 -21525.007955  -2970.336729  15571.151184   -486.811690  6  5  6 106       
PG31  24940.795438  -9735.855567  -1161.311797   -223.520491  9  8  3  72       
PG32  14979.357464   2371.255176 -21628.333066   -559.599320  4  2  5  92       
*  2023  9 18  2 45  0.00000000
PG01   6332.968321 -17394.536950 -19252.667009    165.247869  5  7  6 105       
PG02  12727.817543 -18878.529019 -13030.477396   -552.677193  6  8  6  84       
PG03  -4658.284358 -18022.526289 -19133.917464   -129.328207  6  1  5  90       
PG04    435.786758 -26417.887289   1950.806430    159.147102  7  8  4  97       
PG05 -10889.512400  10871.207365  21477.001880   -143.134177  7  6  4  94       
PG06 -23711.536746   3951.264049 -11336.528867    548.257272  5  6  4  87       
PG07 -11532.417143 -11334.241329  21604.090684     64.305160  2  5  5  77       
PG08   6210.892479 -24079.191780   8666.356615   -142.798947  4  2  3  97       
PG09  -6939.192954 -23464.573003  10184.134914    -56.799937  5  4  5 107       
PG10  23915.540248  10546.874229  -5431.604048    -53.814317  3  5  3  74       
PG11 -23467.461569  12279.896520   1565.300132   -373.962503  9 10  6  55       
PG12   -196.313591  17340.324808 -20412.810764   -425.985581  7  5  4 108       
PG13 -13049.930586  17903.310666  14293.512824    573.812843  8  6  7  82       
PG14 -23055.354142 -13130.915479  -2504.249957    188.129960  6  5  5 109       
PG15  -2611.494096  25142.221344   7265.149989     78.563434  7  5  2  92       
PG16  16181.493052  -5368.088723  20172.575061   -452.579612  7  6  3  85       
PG17 -13115.472302  -9684.944273 -20507.298557    723.775817  6  5  2 102       
PG18  13069.490337   9439.282666  21145.798583   -420.826718  4  3  5  81       
PG19 -15072.205091   -881.659355 -22040.567971    372.976221  6  5  5  76       
PG20 -20297.642270   4476.319741  16464.700647    411.329849  7  6  6 114       
PG21  14535.528404 -18509.035524 -10839.341117    148.687663  4  6  9  80       
PG22 -22796.583794  -9173.924323  -9251.373407    119.727062  5  7  4 102       
PG23  19691.096464  16687.008089   6653.027107     69.903954  2  5    101       
PG24  -9319.687038  19666.930977 -15312.811305   -322.456695  7  6  5  85       
PG25  13810.275483  19048.252707 -12897.054367    468.315054  6  6  3 102       
PG26  23048.709579    951.595738  13344.787775    227.959400  4  6     56       
PG27  12671.238474 -14671.593786  17711.500755    -41.238535  6  4  2 104       
PG28  23001.036799  -2850.591169 -12996.132677    -11.327024  9  8  6  80       
PG29   4793.663378  23691.568451  10842.926645   -609.391123  6  4     62       
PG30 -19934.021432  -3954.471996  17357.065181   -486.808584  6  6  6  90       
PG31  24796.669596  -9407.173918  -3961.051353   -223.521191  8  8  2  77       
PG32  14818.523532   4862.178470 -21341.092160   -559.604754  4  3  5  92       
EOF
